{
  "type": "FeatureCollection",
  "features": [
    {
      "type": "Feature",
      "properties": {
        "norad_id": 28899,
        "name": "INMARSAT 4-F2 (SOUTHPAN/PRN 122)",
        "group": "gnss",
        "lat": -4.599187373758417,
        "lon": -28.122398515023292,
        "alt_km": 35784.125907289475,
        "timestamp": "2025-12-04T07:39:36.381995+00:00",
        "meta_object_name": "INMARSAT 4-F2 (SOUTHPAN/PRN 122)",
        "meta_object_id": "2005-044A",
        "meta_epoch": "2025-12-03T14:26:13.285824",
        "meta_mean_motion": 1.00270861,
        "meta_eccentricity": 0.00034764,
        "meta_inclination": 4.8401,
        "meta_ra_of_asc_node": 43.6613,
        "meta_arg_of_pericenter": 209.4506,
        "meta_mean_anomaly": 179.6299,
        "meta_ephemeris_type": 0,
        "meta_classification_type": "U",
        "meta_norad_cat_id": 28899,
        "meta_element_set_no": 999,
        "meta_rev_at_epoch": 7356,
        "meta_bstar": 0,
        "meta_mean_motion_dot": -2.46e-06,
        "meta_mean_motion_ddot": 0,
        "tle_line1": "1 28899U 05044A   25337.60154266 -.00000246  00000+0  00000+0 0  9990",
        "tle_line2": "2 28899   4.8401  43.6613 0003476 209.4506 179.6299  1.00270861 73563"
      },
      "geometry": {
        "type": "Point",
        "coordinates": [
          -28.122398515023292,
          -4.599187373758417
        ]
      }
    },
    {
      "type": "Feature",
      "properties": {
        "norad_id": 29486,
        "name": "GPS BIIRM-2 (PRN 31)",
        "group": "gnss",
        "lat": -12.367958895923568,
        "lon": -11.984560487933503,
        "alt_km": 20412.730634091058,
        "timestamp": "2025-12-04T07:39:36.382008+00:00",
        "meta_object_name": "GPS BIIRM-2 (PRN 31)",
        "meta_object_id": "2006-042A",
        "meta_epoch": "2025-12-03T19:13:38.940960",
        "meta_mean_motion": 2.00554392,
        "meta_eccentricity": 0.01073584,
        "meta_inclination": 54.6928,
        "meta_ra_of_asc_node": 159.0956,
        "meta_arg_of_pericenter": 51.7428,
        "meta_mean_anomaly": 128.6988,
        "meta_ephemeris_type": 0,
        "meta_classification_type": "U",
        "meta_norad_cat_id": 29486,
        "meta_element_set_no": 999,
        "meta_rev_at_epoch": 14047,
        "meta_bstar": 0,
        "meta_mean_motion_dot": 1e-06,
        "meta_mean_motion_ddot": 0,
        "tle_line1": "1 29486U 06042A   25337.80114515  .00000100  00000+0  00000+0 0  9995",
        "tle_line2": "2 29486  54.6928 159.0956 0107358  51.7428 128.6988  2.00554392140479"
      },
      "geometry": {
        "type": "Point",
        "coordinates": [
          -11.984560487933503,
          -12.367958895923568
        ]
      }
    },
    {
      "type": "Feature",
      "properties": {
        "norad_id": 29601,
        "name": "GPS BIIRM-3 (PRN 12)",
        "group": "gnss",
        "lat": -51.0692600977663,
        "lon": 101.88531298106007,
        "alt_km": 20410.623536175535,
        "timestamp": "2025-12-04T07:39:36.382020+00:00",
        "meta_object_name": "GPS BIIRM-3 (PRN 12)",
        "meta_object_id": "2006-052A",
        "meta_epoch": "2025-12-03T11:22:11.769312",
        "meta_mean_motion": 2.00572797,
        "meta_eccentricity": 0.00875469,
        "meta_inclination": 54.9733,
        "meta_ra_of_asc_node": 221.766,
        "meta_arg_of_pericenter": 87.3435,
        "meta_mean_anomaly": 273.7468,
        "meta_ephemeris_type": 0,
        "meta_classification_type": "U",
        "meta_norad_cat_id": 29601,
        "meta_element_set_no": 999,
        "meta_rev_at_epoch": 13948,
        "meta_bstar": 0,
        "meta_mean_motion_dot": 6.2e-07,
        "meta_mean_motion_ddot": 0,
        "tle_line1": "1 29601U 06052A   25337.47374733  .00000062  00000+0  00000+0 0  9995",
        "tle_line2": "2 29601  54.9733 221.7660 0087546  87.3435 273.7468  2.00572797139486"
      },
      "geometry": {
        "type": "Point",
        "coordinates": [
          101.88531298106007,
          -51.0692600977663
        ]
      }
    },
    {
      "type": "Feature",
      "properties": {
        "norad_id": 32260,
        "name": "GPS BIIRM-4 (PRN 15)",
        "group": "gnss",
        "lat": 24.058944220734077,
        "lon": 107.05005198722874,
        "alt_km": 19923.556904498477,
        "timestamp": "2025-12-04T07:39:36.382031+00:00",
        "meta_object_name": "GPS BIIRM-4 (PRN 15)",
        "meta_object_id": "2007-047A",
        "meta_epoch": "2025-12-02T18:46:05.230272",
        "meta_mean_motion": 2.00564824,
        "meta_eccentricity": 0.01643753,
        "meta_inclination": 53.9483,
        "meta_ra_of_asc_node": 88.1698,
        "meta_arg_of_pericenter": 85.1293,
        "meta_mean_anomaly": 276.722,
        "meta_ephemeris_type": 0,
        "meta_classification_type": "U",
        "meta_norad_cat_id": 32260,
        "meta_element_set_no": 999,
        "meta_rev_at_epoch": 13287,
        "meta_bstar": 0,
        "meta_mean_motion_dot": -1.7e-07,
        "meta_mean_motion_ddot": 0,
        "tle_line1": "1 32260U 07047A   25336.78200498 -.00000017  00000+0  00000+0 0  9995",
        "tle_line2": "2 32260  53.9483  88.1698 0164375  85.1293 276.7220  2.00564824132879"
      },
      "geometry": {
        "type": "Point",
        "coordinates": [
          107.05005198722874,
          24.058944220734077
        ]
      }
    },
    {
      "type": "Feature",
      "properties": {
        "norad_id": 32275,
        "name": "COSMOS 2433 (720)",
        "group": "gnss",
        "lat": 57.83829569274224,
        "lon": 96.5019399648586,
        "alt_km": 19134.352514292397,
        "timestamp": "2025-12-04T07:39:36.382043+00:00",
        "meta_object_name": "COSMOS 2433 (720)",
        "meta_object_id": "2007-052A",
        "meta_epoch": "2025-12-02T18:22:37.547904",
        "meta_mean_motion": 2.13103908,
        "meta_eccentricity": 0.0005557,
        "meta_inclination": 65.6886,
        "meta_ra_of_asc_node": 322.5409,
        "meta_arg_of_pericenter": 252.4107,
        "meta_mean_anomaly": 107.5368,
        "meta_ephemeris_type": 0,
        "meta_classification_type": "U",
        "meta_norad_cat_id": 32275,
        "meta_element_set_no": 999,
        "meta_rev_at_epoch": 14087,
        "meta_bstar": 0,
        "meta_mean_motion_dot": -3.5e-07,
        "meta_mean_motion_ddot": 0,
        "tle_line1": "1 32275U 07052A   25336.76571236 -.00000035  00000+0  00000+0 0  9996",
        "tle_line2": "2 32275  65.6886 322.5409 0005557 252.4107 107.5368  2.13103908140875"
      },
      "geometry": {
        "type": "Point",
        "coordinates": [
          96.5019399648586,
          57.83829569274224
        ]
      }
    },
    {
      "type": "Feature",
      "properties": {
        "norad_id": 32276,
        "name": "COSMOS 2432 (719)",
        "group": "gnss",
        "lat": 49.33166792873951,
        "lon": -5.668034682538186,
        "alt_km": 19131.746633540613,
        "timestamp": "2025-12-04T07:39:36.382055+00:00",
        "meta_object_name": "COSMOS 2432 (719)",
        "meta_object_id": "2007-052B",
        "meta_epoch": "2025-12-01T01:47:57.960960",
        "meta_mean_motion": 2.13103067,
        "meta_eccentricity": 0.00112256,
        "meta_inclination": 65.7054,
        "meta_ra_of_asc_node": 322.7218,
        "meta_arg_of_pericenter": 311.1678,
        "meta_mean_anomaly": 136.2023,
        "meta_ephemeris_type": 0,
        "meta_classification_type": "U",
        "meta_norad_cat_id": 32276,
        "meta_element_set_no": 999,
        "meta_rev_at_epoch": 14086,
        "meta_bstar": 0,
        "meta_mean_motion_dot": -2.4e-07,
        "meta_mean_motion_ddot": 0,
        "tle_line1": "1 32276U 07052B   25335.07497640 -.00000024  00000+0  00000+0 0  9994",
        "tle_line2": "2 32276  65.7054 322.7218 0011225 311.1678 136.2023  2.13103067140861"
      },
      "geometry": {
        "type": "Point",
        "coordinates": [
          -5.668034682538186,
          49.33166792873951
        ]
      }
    },
    {
      "type": "Feature",
      "properties": {
        "norad_id": 32384,
        "name": "GPS BIIRM-5 (PRN 29)",
        "group": "gnss",
        "lat": 15.752247825807755,
        "lon": 90.6571812637071,
        "alt_km": 20093.685964555698,
        "timestamp": "2025-12-04T07:39:36.382067+00:00",
        "meta_object_name": "GPS BIIRM-5 (PRN 29)",
        "meta_object_id": "2007-062A",
        "meta_epoch": "2025-12-02T20:24:02.738880",
        "meta_mean_motion": 2.00576658,
        "meta_eccentricity": 0.00322118,
        "meta_inclination": 55.191,
        "meta_ra_of_asc_node": 282.0427,
        "meta_arg_of_pericenter": 162.849,
        "meta_mean_anomaly": 16.9412,
        "meta_ephemeris_type": 0,
        "meta_classification_type": "U",
        "meta_norad_cat_id": 32384,
        "meta_element_set_no": 999,
        "meta_rev_at_epoch": 13157,
        "meta_bstar": 0,
        "meta_mean_motion_dot": -4.3e-07,
        "meta_mean_motion_ddot": 0,
        "tle_line1": "1 32384U 07062A   25336.85003170 -.00000043  00000+0  00000+0 0  9994",
        "tle_line2": "2 32384  55.1910 282.0427 0032211 162.8490  16.9412  2.00576658131576"
      },
      "geometry": {
        "type": "Point",
        "coordinates": [
          90.6571812637071,
          15.752247825807755
        ]
      }
    }
  ]
}